ONEWEB-0205             
1 48226U 21031S   25111.21687426  .00001590  00000+0  42548-2 0  9994
2 48226  87.9088  13.6211 0001510  94.2907 265.8396 13.14497445192841
ONEWEB-0206             
1 48227U 21031T   25111.26603397  .00000154  00000+0  38055-3 0  9999
2 48227  87.9091  13.5939 0001875  87.8605 272.2739 13.14501567192809
ONEWEB-0182             
1 48228U 21031U   25110.65232623  .00000151  00000+0  37388-3 0  9997
2 48228  87.9092  13.7564 0002009  79.5114 280.6242 13.14501134192925
ONEWEB-0186             
1 48229U 21031V   25111.19626190 -.00000186  00000+0 -53657-3 0  9991
2 48229  87.9093  13.6114 0002296  75.0826 285.0558 13.14501232192957
ONEWEB-0181             
1 48230U 21031W   25111.17404968  .00000260  00000+0  66777-3 0  9996
2 48230  87.9092  13.6860 0001712  85.5908 274.5417 13.14505062192801
ONEWEB-0188             
1 48231U 21031X   25110.67928633 -.00000222  00000+0 -63378-3 0  9995
2 48231  87.9091  13.7762 0001879  82.2454 277.8889 13.14501400192639
ONEWEB-0220             
1 48232U 21031Y   25111.25176228  .00000234  00000+0  59597-3 0  9995
2 48232  87.9071  13.6113 0002432  76.0562 284.0839 13.14502097192979
ONEWEB-0165             
1 48233U 21031Z   25111.28029184 -.00001792  00000+0 -48691-2 0  9991
2 48233  87.9025  13.6484 0001600  89.4843 270.6470 13.14506085192935
